NORAD_CAT_ID,OBJECT_NAME,OBJECT_TYPE,EPOCH,MEAN_MOTION,ECCENTRICITY,INCLINATION,RA_OF_ASC_NODE,ARG_OF_PERICENTER,MEAN_ANOMALY,BSTAR,MEAN_MOTION_DOT,MEAN_MOTION_DDOT,TLE_LINE0,TLE_LINE1,TLE_LINE2,SEMIMAJOR_AXIS,PERIOD,APOGEE,PERIGEE,DECAYED
49762.0,STARLINK-3195,PAYLOAD,2023-05-05 23:57:59,15.08837465,0.0001184,53.2161,121.9814,83.3662,276.7465,6.5473e-05,7.54e-06,0.0,0 STARLINK-3195,1 49762U 21115AQ  23125.99860304  .00000754  00000-0  65473-4 0  9995,2 49762  53.2161 121.9814 0001184  83.3662 276.7465 15.08837465 79983,6917.888,95.438,540.572,538.934,0.0
49762.0,STARLINK-3195,PAYLOAD,2023-05-06 09:30:18,15.08840085,0.0001161,53.2162,120.1955,89.6106,270.5019,8.0581e-05,9.95e-06,0.0,0 STARLINK-3195,1 49762U 21115AQ  23126.39604197  .00000995  00000-0  80581-4 0  9990,2 49762  53.2162 120.1955 0001161  89.6106 270.5019 15.08840085 78931,6917.88,95.438,540.548,538.942,0.0
49762.0,STARLINK-3195,PAYLOAD,2023-05-07 04:34:55,15.08845591,0.0001183,53.2163,116.6268,89.9368,270.176,5.411e-05,5.74e-06,0.0,0 STARLINK-3195,1 49762U 21115AQ  23127.19091798  .00000574  00000-0  54110-4 0  9998,2 49762  53.2163 116.6268 0001183  89.9368 270.1760 15.08845591 80160,6917.863,95.437,540.547,538.91,0.0
49762.0,STARLINK-3195,PAYLOAD,2023-05-07 15:42:37,15.08842865,0.0001177,53.2163,114.5452,88.5652,271.5475,3.6967e-05,3.01e-06,0.0,0 STARLINK-3195,1 49762U 21115AQ  23127.65459932  .00000301  00000-0  36967-4 0  9995,2 49762  53.2163 114.5452 0001177  88.5652 271.5475 15.08842865 79129,6917.872,95.437,540.551,538.922,0.0
49762.0,STARLINK-3195,PAYLOAD,2023-05-08 04:25:43,15.08831835,0.0001133,53.2167,112.1681,87.4668,272.6454,6.915e-06,-1.78e-06,0.0,0 STARLINK-3195,1 49762U 21115AQ  23128.18452856 -.00000178  00000-0  69150-5 0  9996,2 49762  53.2167 112.1681 0001133  87.4668 272.6454 15.08831835 80315,6917.905,95.438,540.554,538.987,0.0
49762.0,STARLINK-3195,PAYLOAD,2023-05-08 06:01:06,15.08834055,0.0001124,53.2167,111.8712,87.0455,273.0665,2.4802e-05,1.07e-06,0.0,0 STARLINK-3195,1 49762U 21115AQ  23128.25076672  .00000107  00000-0  24802-4 0  9997,2 49762  53.2167 111.8712 0001124  87.0455 273.0665 15.08834055 79219,6917.899,95.438,540.541,538.986,0.0
49762.0,STARLINK-3195,PAYLOAD,2023-05-09 07:27:16,15.08839754,0.0001118,53.217,107.1145,95.1946,264.9174,4.5073e-05,4.3e-06,0.0,0 STARLINK-3195,1 49762U 21115AQ  23129.31060514  .00000430  00000-0  45073-4 0  9995,2 49762  53.2170 107.1145 0001118  95.1946 264.9174 15.08839754 79371,6917.881,95.438,540.52,538.973,0.0
49762.0,STARLINK-3195,PAYLOAD,2023-05-10 07:18:03,15.0884322,0.0001063,53.217,102.6536,89.8196,270.2918,0.00013648,1.885e-05,0.0,0 STARLINK-3195,1 49762U 21115AQ  23130.30420362  .00001885  00000-0  13648-3 0  9994,2 49762  53.2170 102.6536 0001063  89.8196 270.2918 15.08843220 79527,6917.871,95.437,540.471,539.0,0.0
49762.0,STARLINK-3195,PAYLOAD,2023-05-11 05:33:27,15.08845055,0.0001095,53.2168,98.4898,89.5082,270.6036,9.2286e-05,1.181e-05,0.0,0 STARLINK-3195,1 49762U 21115AQ  23131.23156506  .00001181  00000-0  92286-4 0  9998,2 49762  53.2168  98.4898 0001095  89.5082 270.6036 15.08845055 79661,6917.865,95.437,540.487,538.972,0.0
49762.0,STARLINK-3195,PAYLOAD,2023-05-12 03:48:51,15.08839121,0.0001102,53.217,94.3248,94.1262,265.9856,-7.9946e-06,-4.15e-06,0.0,0 STARLINK-3195,1 49762U 21115AQ  23132.15893338 -.00000415  00000-0 -79946-5 0  9991,2 49762  53.2170  94.3248 0001102  94.1262 265.9856 15.08839121 80913,6917.883,95.438,540.51,538.986,0.0
49762.0,STARLINK-3195,PAYLOAD,2023-05-13 03:39:37,15.08853739,0.0001175,53.2179,89.8624,104.3465,255.7657,0.00017201,2.452e-05,0.0,0 STARLINK-3195,1 49762U 21115AQ  23133.15251872  .00002452  00000-0  17201-3 0  9998,2 49762  53.2179  89.8624 0001175 104.3465 255.7657 15.08853739 81062,6917.838,95.437,540.516,538.891,0.0
49762.0,STARLINK-3195,PAYLOAD,2023-05-14 03:30:25,15.08839776,9.7e-05,53.2165,85.4051,88.7043,271.4061,0.00010732,1.421e-05,0.0,0 STARLINK-3195,1 49762U 21115AQ  23134.14613304  .00001421  00000-0  10732-3 0  9997,2 49762  53.2165  85.4051 0000970  88.7043 271.4061 15.08839776 81218,6917.881,95.438,540.417,539.075,0.0
49762.0,STARLINK-3195,PAYLOAD,2023-05-14 20:59:40,15.08845764,8.64e-05,53.2174,82.1373,86.4207,273.6884,-4.9806e-05,-1.08e-05,0.0,0 STARLINK-3195,1 49762U 21115AQ  23134.87476944 -.00001080  00000-0 -49806-4 0  9992,2 49762  53.2174  82.1373 0000864  86.4207 273.6884 15.08845764 80218,6917.863,95.437,540.325,539.13,0.0
49762.0,STARLINK-3195,PAYLOAD,2023-05-15 03:21:12,15.08851959,0.0001009,53.2167,80.9478,89.4673,270.6434,5.0811e-05,5.21e-06,0.0,0 STARLINK-3195,1 49762U 21115AQ  23135.13972540  .00000521  00000-0  50811-4 0  9990,2 49762  53.2167  80.9478 0001009  89.4673 270.6434 15.08851959 81362,6917.844,95.437,540.407,539.011,0.0
49762.0,STARLINK-3195,PAYLOAD,2023-05-15 12:53:31,15.08845145,0.0001,53.2167,79.1638,90.1842,269.9265,-1.1633e-05,-4.73e-06,0.0,0 STARLINK-3195,1 49762U 21115AQ  23135.53716759 -.00000473  00000-0 -11633-4 0  9999,2 49762  53.2167  79.1638 0001000  90.1842 269.9265 15.08845145 81428,6917.865,95.437,540.421,539.038,0.0
49762.0,STARLINK-3195,PAYLOAD,2023-05-16 01:36:37,15.08831218,0.0001257,53.2192,76.7886,117.0125,243.0995,-2.6979e-05,-7.17e-06,0.0,0 STARLINK-3195,1 49762U 21115AQ  23136.06709728 -.00000717  00000-0 -26979-4 0  9996,2 49762  53.2192  76.7886 0001257 117.0125 243.0995 15.08831218 81509,6917.907,95.438,540.642,538.903,0.0
49762.0,STARLINK-3195,PAYLOAD,2023-05-16 20:41:14,15.08840231,0.0001055,53.2185,73.2178,100.4278,259.6834,4.4867e-05,4.26e-06,0.0,0 STARLINK-3195,1 49762U 21115AQ  23136.86197463  .00000426  00000-0  44867-4 0  9992,2 49762  53.2185  73.2178 0001055 100.4278 259.6834 15.08840231 81621,6917.88,95.438,540.475,539.015,0.0
49762.0,STARLINK-3195,PAYLOAD,2023-05-17 04:38:09,15.08850434,9.41e-05,53.217,71.7285,93.7022,266.4078,0.00020386,2.959e-05,0.0,0 STARLINK-3195,1 49762U 21115AQ  23137.19316972  .00002959  00000-0  20386-3 0  9999,2 49762  53.2170  71.7285 0000941  93.7022 266.4078 15.08850434 81678,6917.848,95.437,540.364,539.063,0.0
49762.0,STARLINK-3195,PAYLOAD,2023-05-18 02:53:34,15.0883881,0.0001138,53.2167,67.5649,113.068,247.0432,7.7082e-05,9.39e-06,0.0,0 STARLINK-3195,1 49762U 21115AQ  23138.12053699  .00000939  00000-0  77082-4 0  9999,2 49762  53.2167  67.5649 0001138 113.0680 247.0432 15.08838810 81815,6917.884,95.438,540.536,538.962,0.0
49762.0,STARLINK-3195,PAYLOAD,2023-05-18 04:28:57,15.08841063,0.0001199,53.2175,67.2638,110.1469,249.9652,5.8704e-05,6.47e-06,0.0,0 STARLINK-3195,1 49762U 21115AQ  23138.18677538  .00000647  00000-0  58704-4 0  9995,2 49762  53.2175  67.2638 0001199 110.1469 249.9652 15.08841063 80716,6917.877,95.437,540.572,538.913,0.0
49762.0,STARLINK-3195,PAYLOAD,2023-05-18 18:47:25,15.08838712,0.0001089,53.2177,64.5921,83.7782,276.3334,-3.2975e-05,-8.13e-06,0.0,0 STARLINK-3195,1 49762U 21115AQ  23138.78293951 -.00000813  00000-0 -32975-4 0  9993,2 49762  53.2177  64.5921 0001089  83.7782 276.3334 15.08838712 80802,6917.884,95.438,540.503,538.996,0.0
49762.0,STARLINK-3195,PAYLOAD,2023-05-19 04:19:44,15.08840797,0.0001049,53.2186,62.8066,92.7747,267.3365,7.1532e-05,8.51e-06,0.0,0 STARLINK-3195,1 49762U 21115AQ  23139.18038093  .00000851  00000-0  71532-4 0  9994,2 49762  53.2186  62.8066 0001049  92.7747 267.3365 15.08840797 81979,6917.878,95.438,540.469,539.017,0.0
49762.0,STARLINK-3195,PAYLOAD,2023-05-20 00:59:45,15.08849372,0.0001001,53.2185,58.9405,98.074,262.0366,0.00013211,1.816e-05,0.0,0 STARLINK-3195,1 49762U 21115AQ  23140.04149333  .00001816  00000-0  13211-3 0  9992,2 49762  53.2185  58.9405 0001001  98.0740 262.0366 15.08849372 82108,6917.852,95.437,540.409,539.024,0.0
49762.0,STARLINK-3195,PAYLOAD,2023-05-21 04:01:17,15.08860847,0.0001004,53.2181,53.8852,86.3498,273.7609,0.0003251,4.893e-05,0.0,0 STARLINK-3195,1 49762U 21115AQ  23141.16756603  .00004893  00000-0  32510-3 0  9991,2 49762  53.2181  53.8852 0001004  86.3498 273.7609 15.08860847 82274,6917.817,95.436,540.376,538.987,0.0
49762.0,STARLINK-3195,PAYLOAD,2023-05-22 00:41:20,15.08826424,9.01e-05,53.2175,50.0209,98.3899,261.7196,-0.00016254,-2.873e-05,0.0,0 STARLINK-3195,1 49762U 21115AQ  23142.02870661 -.00002873  00000-0 -16254-3 0  9993,2 49762  53.2175  50.0209 0000901  98.3899 261.7196 15.08826424 82401,6917.922,95.438,540.41,539.164,0.0
49762.0,STARLINK-3195,PAYLOAD,2023-05-22 16:35:11,15.08834633,9.29e-05,53.2185,47.0455,93.6119,266.4979,3.8759e-05,3.29e-06,0.0,0 STARLINK-3195,1 49762U 21115AQ  23142.69110651  .00000329  00000-0  38759-4 0  9999,2 49762  53.2185  47.0455 0000929  93.6119 266.4979 15.08834633 82507,6917.897,95.438,540.404,539.119,0.0
49762.0,STARLINK-3195,PAYLOAD,2023-05-23 00:32:06,15.08847644,9.67e-05,53.2177,45.5624,101.5011,258.609,0.00033973,5.124e-05,0.0,0 STARLINK-3195,1 49762U 21115AQ  23143.02230242  .00005124  00000-0  33973-3 0  9996,2 49762  53.2177  45.5624 0000967 101.5011 258.6090 15.08847644 82559,6917.857,95.437,540.391,539.053,0.0
49762.0,STARLINK-3195,PAYLOAD,2023-05-24 00:22:54,15.08837931,0.000114,53.2183,41.1056,116.3524,243.7585,0.00019694,2.848e-05,0.0,0 STARLINK-3195,1 49762U 21115AQ  23144.01590851  .00002848  00000-0  19694-3 0  9995,2 49762  53.2183  41.1056 0001140 116.3524 243.7585 15.08837931 82703,6917.887,95.438,540.54,538.963,0.0
49762.0,STARLINK-3195,PAYLOAD,2023-05-25 22:29:05,15.08841365,9.12e-05,53.217,32.4798,106.0748,254.0345,0.00010926,1.452e-05,0.0,0 STARLINK-3195,1 49762U 21115AQ  23145.93686597  .00001452  00000-0  10926-3 0  9999,2 49762  53.2170  32.4798 0000912 106.0748 254.0345 15.08841365 81888,6917.876,95.437,540.372,539.11,0.0
49762.0,STARLINK-3195,PAYLOAD,2023-05-26 01:39:51,15.0884608,9.79e-05,53.218,31.8815,94.5589,265.5515,0.00017489,2.497e-05,0.0,0 STARLINK-3195,1 49762U 21115AQ  23146.06934373  .00002497  00000-0  17489-3 0  9993,2 49762  53.2180  31.8815 0000979  94.5589 265.5515 15.08846080 83011,6917.862,95.437,540.404,539.05,0.0
